ARIANE 40 R/B           
1 20443U 90005H   26023.92183332  .00000713  00000+0  24050-3 0  9995
2 20443  98.3178  85.8956 0009635 346.1706  13.9217 14.39837016886368
DELTA 2 R/B(1)          
1 20453U 90008B   26023.56160602  .00077895  00000+0  10948-2 0  9999
2 20453  35.6054 109.6166 0100635 200.9380 158.7216 15.49685621919113
COSMOS 2058             
1 20465U 90010A   26024.21567715  .00005587  00000+0  33334-3 0  9998
2 20465  82.4653  91.2400 0011377 122.1267 238.1069 15.10905440935525
SL-14 R/B               
1 20466U 90010B   26024.23901614  .00000910  00000+0  10732-3 0  9993
2 20466  82.5045 309.1375 0021420  86.5023 273.8641 14.83522985921892
SL-14 R/B               
1 20511U 90018B   26024.14641262  .00000815  00000+0  99450-4 0  9991
2 20511  82.5201 264.7325 0015086 236.0760 123.9020 14.82097995915985
HST                     
1 20580U 90037B   26024.17050346  .00012636  00000+0  43133-3 0  9998
2 20580  28.4679 343.5341 0001697 343.3078  16.7462 15.28720028766490
SL-16 R/B               
1 20625U 90046B   26024.30267426 -.00000174  00000+0 -65256-4 0  9999
2 20625  70.9993  31.1325 0013994   1.3104 358.8052 14.15007611842117
COSMOS 2084             
1 20663U 90055A   26024.02056324  .00005637  00000+0  40295-3 0  9995
2 20663  62.7903 127.8951 0024477 181.2401 178.8643 15.05339309929599
SL-6 R/B(2)             
1 20666U 90055D   26024.20898790  .00003670  00000+0  28258-3 0  9999
2 20666  62.7838  45.0846 0018331 332.9780  27.0363 15.03326741931502
SL-8 R/B                
1 20775U 90078B   26024.20182021  .00026669  00000+0  79899-3 0  9998
2 20775  82.9048 291.2674 0368219 163.0380 198.3551 14.87489428802686
SL-8 R/B                
1 21088U 91006B   26024.26586721  .00000027  00000+0  11315-4 0  9999
2 21088  82.9408 203.0781 0022963 156.7838  16.1774 13.77492026757953
OKEAN-3                 
1 21397U 91039A   26024.25465767  .00005882  00000+0  41792-3 0  9998
2 21397  82.5162  19.8786 0015884 117.6327 242.6514 15.04428249858352
COSMOS 2151             
1 21422U 91042A   26024.25591592  .00003187  00000+0  25452-3 0  9998
2 21422  82.4979 126.5293 0012029 203.3528 156.7152 14.99908435856533
SL-14 R/B               
1 21423U 91042B   26023.98754515  .00000793  00000+0  97262-4 0  9993
2 21423  82.4915 262.1103 0017888  32.3703 327.8604 14.81785628846455
ERS-1                   
1 21574U 91050A   26024.27933806  .00000667  00000+0  22810-3 0  9990
2 21574  98.7898  41.3978 0031489 335.8629  24.1080 14.39407703809340
ARIANE 40 R/B           
1 21610U 91050F   26024.15845344  .00000787  00000+0  24818-3 0  9990
2 21610  98.2103  78.0462 0002870 186.7384 173.3769 14.42856683812572
INTERCOSMOS 25          
1 21819U 91086A   26024.23807027  .00001743  00000+0  34401-3 0  9997
2 21819  82.6091 336.8710 1486154 212.7224 137.2694 12.11875252491309
SL-8 R/B                
1 21876U 92008B   26024.22893093  .00000130  00000+0  11842-3 0  9995
2 21876  82.9287 300.8488 0033312 258.7603 211.6166 13.75968029703302
SL-8 R/B                
1 21938U 92020B   26024.19825348  .00000214  00000+0  20597-3 0  9992
2 21938  82.9304 186.7874 0030083  63.3005 109.4315 13.75541156695015
USA 81                  
1 21949U 92023A   26023.80986934  .00000413  00000+0  14577-3 0  9995
2 21949  85.0111 157.3162 0002100 115.0539 245.0872 14.32347985 88364
COSMOS 2219             
1 22219U 92076A   26024.23866702 -.00000121  00000+0 -38664-4 0  9994
2 22219  71.0613 110.9963 0020819 268.7400  91.1337 14.14081130712098
SL-16 R/B               
1 22220U 92076B   26024.15807375 -.00000109  00000+0 -30252-4 0  9999
2 22220  71.0000 282.1800 0012417 173.5515 298.8622 14.16850587715523
COSMOS 2221             
1 22236U 92080A   26024.22778188  .00004341  00000+0  38432-3 0  9995
2 22236  82.5066 321.6552 0014267 349.4698  10.6222 14.95990542774145
SL-16 R/B               
1 22285U 92093B   26024.21722207  .00000134  00000+0  92818-4 0  9998
2 22285  71.0222  97.6291 0004391 342.8998  17.1976 14.15443173706860
COSMOS 2228             
1 22286U 92094A   26024.27316222  .00003262  00000+0  28043-3 0  9995
2 22286  82.5177 279.8376 0019622  90.7981 269.5490 14.96972909769416
SL-16 R/B               
1 22566U 93016B   26024.18253247  .00000390  00000+0  22446-3 0  9998
2 22566  71.0087 308.6620 0009242  19.5481 340.5995 14.15297075695877
COSMOS 2242             
1 22626U 93024A   26024.23660357  .00003486  00000+0  30498-3 0  9999
2 22626  82.5208 309.2256 0018122  93.8449 266.4846 14.96335400773742
SL-16 R/B               
1 22803U 93059B   26024.22236559 -.00000103  00000+0 -27301-4 0  9991
2 22803  70.9907 104.9036 0019575 277.0330  82.8567 14.17223853673234
ARIANE 40 R/B           
1 22830U 93061H   26024.14636250  .00000557  00000+0  22001-3 0  9999
2 22830  98.5009  93.8922 0011602  60.0122 300.2213 14.32834701687726
COSMOS 2278             
1 23087U 94023A   26024.11222373  .00000016  00000+0  32958-4 0  9990
2 23087  71.0534 268.3623 0006340  98.5813 261.6028 14.14367196638508
SL-16 R/B               
1 23088U 94023B   26024.10822655 -.00000043  00000+0  23167-5 0  9993
2 23088  71.0000 164.5114 0004048 327.0987  32.9883 14.15007132639785
SL-16 R/B               
1 23343U 94074B   26024.29386193  .00000946  00000+0  13360-3 0  9998
2 23343  97.7164  56.8991 0006919  18.4732  73.2811 14.79349357680681
SL-16 R/B               
1 23405U 94077B   26024.24857888 -.00000044  00000+0  21675-5 0  9999
2 23405  70.9829  85.9874 0004837 251.8431 108.2165 14.15558929609948
ARIANE 40+ R/B          
1 23561U 95021B   26024.19984947  .00000660  00000+0  22470-3 0  9998
2 23561  98.4586  96.2649 0005612 275.3628 144.4410 14.39735866612843
SL-16 R/B               
1 23705U 95058B   26024.11202822 -.00000171  00000+0 -62857-4 0  9998
2 23705  71.0208 273.8461 0013170 197.9009 162.1652 14.15488951561545
SL-16 R/B               
1 24298U 96051B   26023.98184682  .00000106  00000+0  84291-4 0  9999
2 24298  70.7580 269.8718 0018534 209.0029 151.0062 14.12403221515330
ORBVIEW 2 (SEASTAR)     
1 24883U 97037A   26024.29591994  .00000660  00000+0  24588-3 0  9994
2 24883  98.8492 187.4507 0002299 166.5551 193.5695 14.35456461502105
SL-16 R/B               
1 25400U 98043G   26023.82684821  .00000165  00000+0  88026-4 0  9996
2 25400  98.8184 336.8933 0010480 139.7101 220.4857 14.26037601432592
SL-16 R/B               
1 25407U 98045B   26024.14490432  .00000239  00000+0  14459-3 0  9994
2 25407  71.0110 275.2515 0005149  95.2226 264.9485 14.16186175420792
ISS (ZARYA)             
1 25544U 98067A   26023.72220588  .00016677  00000+0  30360-3 0  9998
2 25544  51.6325 294.6353 0007776  51.0046 309.1634 15.49596283549364
CZ-4B R/B               
1 25732U 99025C   26023.36343816  .00000157  00000+0  96570-4 0  9994
2 25732  98.6711  68.7007 0038121 114.7446 256.4901 14.18255199381748
OKEAN-O                 
1 25860U 99039A   26024.17438030  .00001726  00000+0  23363-3 0  9996
2 25860  97.9535  84.4970 0001864  99.8120 260.3303 14.80254381427805
SL-16 R/B               
1 25861U 99039B   26023.58860492  .00001189  00000+0  15762-3 0  9999
2 25861  98.0062  82.7303 0015793  47.6102 312.6444 14.81659748430180
DELTA 2 R/B             
1 25876U 99041E   26023.98309478  .00004445  00000+0  75165-3 0  9995
2 25876  51.7624 119.7997 0503010 216.3357 140.2426 14.11617890356713
HELIOS 1B               
1 25977U 99064A   26024.25283549  .00003438  00000+0  38571-3 0  9994
2 25977  98.1733 285.1820 0001218 134.6682 225.4633 14.87493956678654
TERRA                   
1 25994U 99068A   26024.26743345  .00000919  00000+0  19661-3 0  9993
2 25994  97.9685  79.3784 0001713 356.9761  67.8651 14.60960607388597
SL-16 R/B               
1 26070U 00006B   26024.14871375  .00000221  00000+0  13649-3 0  9991
2 26070  71.0005 191.4880 0018683 251.5243 108.3850 14.15813685342252
TITAN 4B R/B            
1 26474U 00047B   26024.23157239  .00006826  00000+0  43012-3 0  9994
2 26474  67.9891 165.4857 0036865  90.9858 269.5515 15.09157445386201
ENVISAT                 
1 27386U 02009A   26023.82622763  .00000267  00000+0  10039-3 0  9996
2 27386  98.3658 338.5132 0001208  91.9411 290.7486 14.39017880252723
IDEFIX & ARIANE 42P R/B 
1 27422U 02021B   26024.23604158  .00000643  00000+0  26092-3 0  9999
2 27422  98.5830 323.3863 0011217 323.4938  36.5480 14.30989591237663
AQUA                    
1 27424U 02022A   26024.27297532  .00002028  00000+0  41554-3 0  9999
2 27424  98.4098 350.8569 0001919  66.9735  38.1578 14.61854293262242
CZ-4B R/B               
1 27432U 02024C   26024.15752836  .00000139  00000+0  94243-4 0  9995
2 27432  98.8933  77.7680 0050736 148.6079 276.2436 14.14538810222945
MIDORI II (ADEOS-II)    
1 27597U 02056A   26024.14010947  .00000741  00000+0  30942-3 0  9995
2 27597  98.7697 342.3329 0001964 105.2463 254.8936 14.29246492203932
H-2A R/B                
1 27601U 02056E   26024.33258889  .00000690  00000+0  25681-3 0  9998
2 27601  98.3126 346.4091 0069166 294.3357 179.7226 14.33723133207750
CZ-4B R/B               
1 28059U 03049C   26024.23402126  .00000916  00000+0  22144-3 0  9995
2 28059  98.6829  17.4133 0048433   8.7857 351.4175 14.54963482180139
CZ-2C R/B               
1 28222U 04012C   26024.14715901  .00068630  00000+0  85838-3 0  9992
2 28222  97.7334  85.3745 0017009 114.0735 246.2303 15.59420196197325
SL-16 R/B               
1 28353U 04021B   26024.26155674 -.00000146  00000+0 -51209-4 0  9991
2 28353  71.0026 325.7297 0002649 122.3541 237.7838 14.14592074116556
CZ-4B R/B               
1 28415U 04035C   26024.00377752  .00012269  00000+0  44135-3 0  9996
2 28415  97.3564  58.7960 0034114 125.5200 234.9230 15.28192064173089
CZ-2C R/B               
1 28480U 04046B   26024.24052825  .00000368  00000+0  15255-3 0  9995
2 28480  98.2000 301.9828 0138296 286.5400  72.0629 14.26972376102161
